CCSDS_OMM_VERS = 2.0
CREATION_DATE  = 
ORIGINATOR     = 

OBJECT_NAME    = HULIANWANG DIGUI-105
OBJECT_ID      = 2025-285A
CENTER_NAME    = EARTH
REF_FRAME      = TEME
TIME_SYSTEM    = UTC
MEAN_ELEMENT_THEORY = SGP/SGP4

EPOCH          = 2026-01-04T22:37:43.006368
MEAN_MOTION    = 13.95407638
ECCENTRICITY   = .00003332
INCLINATION    = 50.0061
RA_OF_ASC_NODE = 23.0871
ARG_OF_PERICENTER = 249.1973
MEAN_ANOMALY   = 110.8892

EPHEMERIS_TYPE = 0
CLASSIFICATION_TYPE = U
NORAD_CAT_ID   = 66915
ELEMENT_SET_NO = 999
REV_AT_EPOCH   = 416
BSTAR          = .54282815E-4
MEAN_MOTION_DOT = -.74E-6
MEAN_MOTION_DDOT = 0

CCSDS_OMM_VERS = 2.0
CREATION_DATE  = 
ORIGINATOR     = 

OBJECT_NAME    = HULIANWANG DIGUI-106
OBJECT_ID      = 2025-285B
CENTER_NAME    = EARTH
REF_FRAME      = TEME
TIME_SYSTEM    = UTC
MEAN_ELEMENT_THEORY = SGP/SGP4

EPOCH          = 2026-01-04T22:32:38.856768
MEAN_MOTION    = 13.95504815
ECCENTRICITY   = .00002106
INCLINATION    = 50.0073
RA_OF_ASC_NODE = 23.0716
ARG_OF_PERICENTER = 214.5197
MEAN_ANOMALY   = 145.5691

EPHEMERIS_TYPE = 0
CLASSIFICATION_TYPE = U
NORAD_CAT_ID   = 66916
ELEMENT_SET_NO = 999
REV_AT_EPOCH   = 416
BSTAR          = .39758962E-4
MEAN_MOTION_DOT = -.94E-6
MEAN_MOTION_DDOT = 0

CCSDS_OMM_VERS = 2.0
CREATION_DATE  = 
ORIGINATOR     = 

OBJECT_NAME    = HULIANWANG DIGUI-107
OBJECT_ID      = 2025-285C
CENTER_NAME    = EARTH
REF_FRAME      = TEME
TIME_SYSTEM    = UTC
MEAN_ELEMENT_THEORY = SGP/SGP4

EPOCH          = 2026-01-04T22:29:33.006912
MEAN_MOTION    = 13.95673388
ECCENTRICITY   = .00001815
INCLINATION    = 50.0038
RA_OF_ASC_NODE = 23.0490
ARG_OF_PERICENTER = 147.7548
MEAN_ANOMALY   = 212.3364

EPHEMERIS_TYPE = 0
CLASSIFICATION_TYPE = U
NORAD_CAT_ID   = 66917
ELEMENT_SET_NO = 999
REV_AT_EPOCH   = 416
BSTAR          = .73807872E-4
MEAN_MOTION_DOT = -.47E-6
MEAN_MOTION_DDOT = 0

CCSDS_OMM_VERS = 2.0
CREATION_DATE  = 
ORIGINATOR     = 

OBJECT_NAME    = HULIANWANG DIGUI-108
OBJECT_ID      = 2025-285D
CENTER_NAME    = EARTH
REF_FRAME      = TEME
TIME_SYSTEM    = UTC
MEAN_ELEMENT_THEORY = SGP/SGP4

EPOCH          = 2026-01-04T20:42:40.627872
MEAN_MOTION    = 13.95818954
ECCENTRICITY   = .00001666
INCLINATION    = 50.0060
RA_OF_ASC_NODE = 23.3294
ARG_OF_PERICENTER = 38.0030
MEAN_ANOMALY   = 322.0883

EPHEMERIS_TYPE = 0
CLASSIFICATION_TYPE = U
NORAD_CAT_ID   = 66918
ELEMENT_SET_NO = 999
REV_AT_EPOCH   = 415
BSTAR          = .64515215E-4
MEAN_MOTION_DOT = -.6E-6
MEAN_MOTION_DDOT = 0

CCSDS_OMM_VERS = 2.0
CREATION_DATE  = 
ORIGINATOR     = 

OBJECT_NAME    = HULIANWANG DIGUI-109
OBJECT_ID      = 2025-285E
CENTER_NAME    = EARTH
REF_FRAME      = TEME
TIME_SYSTEM    = UTC
MEAN_ELEMENT_THEORY = SGP/SGP4

EPOCH          = 2026-01-04T22:22:37.362432
MEAN_MOTION    = 13.95945920
ECCENTRICITY   = .00003761
INCLINATION    = 50.0085
RA_OF_ASC_NODE = 23.0379
ARG_OF_PERICENTER = 241.5193
MEAN_ANOMALY   = 118.5670

EPHEMERIS_TYPE = 0
CLASSIFICATION_TYPE = U
NORAD_CAT_ID   = 66919
ELEMENT_SET_NO = 999
REV_AT_EPOCH   = 416
BSTAR          = .82496512E-4
MEAN_MOTION_DOT = -.35E-6
MEAN_MOTION_DDOT = 0

CCSDS_OMM_VERS = 2.0
CREATION_DATE  = 
ORIGINATOR     = 

OBJECT_NAME    = HULIANWANG DIGUI-110
OBJECT_ID      = 2025-285F
CENTER_NAME    = EARTH
REF_FRAME      = TEME
TIME_SYSTEM    = UTC
MEAN_ELEMENT_THEORY = SGP/SGP4

EPOCH          = 2026-01-04T22:18:49.848768
MEAN_MOTION    = 13.96091334
ECCENTRICITY   = .00003517
INCLINATION    = 50.0125
RA_OF_ASC_NODE = 23.0343
ARG_OF_PERICENTER = 318.5315
MEAN_ANOMALY   = 41.5559

EPHEMERIS_TYPE = 0
CLASSIFICATION_TYPE = U
NORAD_CAT_ID   = 66920
ELEMENT_SET_NO = 999
REV_AT_EPOCH   = 416
BSTAR          = .28610419E-3
MEAN_MOTION_DOT = .246E-5
MEAN_MOTION_DDOT = 0

CCSDS_OMM_VERS = 2.0
CREATION_DATE  = 
ORIGINATOR     = 

OBJECT_NAME    = HULIANWANG DIGUI-111
OBJECT_ID      = 2025-285G
CENTER_NAME    = EARTH
REF_FRAME      = TEME
TIME_SYSTEM    = UTC
MEAN_ELEMENT_THEORY = SGP/SGP4

EPOCH          = 2026-01-04T22:16:39.390816
MEAN_MOTION    = 13.96280165
ECCENTRICITY   = .0000305
INCLINATION    = 50.0131
RA_OF_ASC_NODE = 23.0312
ARG_OF_PERICENTER = 207.1276
MEAN_ANOMALY   = 152.9610

EPHEMERIS_TYPE = 0
CLASSIFICATION_TYPE = U
NORAD_CAT_ID   = 66921
ELEMENT_SET_NO = 999
REV_AT_EPOCH   = 416
BSTAR          = -.27214005E-4
MEAN_MOTION_DOT = -.186E-5
MEAN_MOTION_DDOT = 0

CCSDS_OMM_VERS = 2.0
CREATION_DATE  = 
ORIGINATOR     = 

OBJECT_NAME    = HULIANWANG DIGUI-112
OBJECT_ID      = 2025-285H
CENTER_NAME    = EARTH
REF_FRAME      = TEME
TIME_SYSTEM    = UTC
MEAN_ELEMENT_THEORY = SGP/SGP4

EPOCH          = 2026-01-04T22:14:28.360032
MEAN_MOTION    = 13.96466593
ECCENTRICITY   = .00003533
INCLINATION    = 50.0105
RA_OF_ASC_NODE = 23.0116
ARG_OF_PERICENTER = 211.9096
MEAN_ANOMALY   = 148.1784

EPHEMERIS_TYPE = 0
CLASSIFICATION_TYPE = U
NORAD_CAT_ID   = 66922
ELEMENT_SET_NO = 999
REV_AT_EPOCH   = 416
BSTAR          = .38539406E-4
MEAN_MOTION_DOT = -.95E-6
MEAN_MOTION_DDOT = 0

CCSDS_OMM_VERS = 2.0
CREATION_DATE  = 
ORIGINATOR     = 

OBJECT_NAME    = HULIANWANG DIGUI-113
OBJECT_ID      = 2025-285J
CENTER_NAME    = EARTH
REF_FRAME      = TEME
TIME_SYSTEM    = UTC
MEAN_ELEMENT_THEORY = SGP/SGP4

EPOCH          = 2026-01-04T23:53:07.915200
MEAN_MOTION    = 13.96563475
ECCENTRICITY   = .00004291
INCLINATION    = 50.0104
RA_OF_ASC_NODE = 22.7099
ARG_OF_PERICENTER = 273.0597
MEAN_ANOMALY   = 87.0255

EPHEMERIS_TYPE = 0
CLASSIFICATION_TYPE = U
NORAD_CAT_ID   = 66923
ELEMENT_SET_NO = 999
REV_AT_EPOCH   = 417
BSTAR          = .12103911E-3
MEAN_MOTION_DOT = .2E-6
MEAN_MOTION_DDOT = 0

CCSDS_OMM_VERS = 2.0
CREATION_DATE  = 
ORIGINATOR     = 

OBJECT_NAME    = CZ-8A R/B
OBJECT_ID      = 2025-285K
CENTER_NAME    = EARTH
REF_FRAME      = TEME
TIME_SYSTEM    = UTC
MEAN_ELEMENT_THEORY = SGP/SGP4

EPOCH          = 2026-01-04T17:08:05.394048
MEAN_MOTION    = 14.30514258
ECCENTRICITY   = .01191466
INCLINATION    = 50.0093
RA_OF_ASC_NODE = 18.3603
ARG_OF_PERICENTER = 187.7199
MEAN_ANOMALY   = 172.1885

EPHEMERIS_TYPE = 0
CLASSIFICATION_TYPE = U
NORAD_CAT_ID   = 66924
ELEMENT_SET_NO = 999
REV_AT_EPOCH   = 421
BSTAR          = .12194688E-3
MEAN_MOTION_DOT = .181E-5
MEAN_MOTION_DDOT = 0

CCSDS_OMM_VERS = 2.0
CREATION_DATE  = 
ORIGINATOR     = 

OBJECT_NAME    = STARLINK-35945
OBJECT_ID      = 2025-286A
CENTER_NAME    = EARTH
REF_FRAME      = TEME
TIME_SYSTEM    = UTC
MEAN_ELEMENT_THEORY = SGP/SGP4

EPOCH          = 2026-01-04T22:16:17.405472
MEAN_MOTION    = 15.49332575
ECCENTRICITY   = .00008671
INCLINATION    = 53.1589
RA_OF_ASC_NODE = 296.8104
ARG_OF_PERICENTER = 95.6817
MEAN_ANOMALY   = 264.4291

EPHEMERIS_TYPE = 0
CLASSIFICATION_TYPE = U
NORAD_CAT_ID   = 66925
ELEMENT_SET_NO = 999
REV_AT_EPOCH   = 562
BSTAR          = .15372108E-2
MEAN_MOTION_DOT = .86064E-3
MEAN_MOTION_DDOT = 0

CCSDS_OMM_VERS = 2.0
CREATION_DATE  = 
ORIGINATOR     = 

OBJECT_NAME    = STARLINK-35942
OBJECT_ID      = 2025-286B
CENTER_NAME    = EARTH
REF_FRAME      = TEME
TIME_SYSTEM    = UTC
MEAN_ELEMENT_THEORY = SGP/SGP4

EPOCH          = 2026-01-04T22:00:01.999584
MEAN_MOTION    = 15.39675945
ECCENTRICITY   = .00015951
INCLINATION    = 53.1592
RA_OF_ASC_NODE = 297.2298
ARG_OF_PERICENTER = 89.1639
MEAN_ANOMALY   = 24.6426

EPHEMERIS_TYPE = 0
CLASSIFICATION_TYPE = U
NORAD_CAT_ID   = 66926
ELEMENT_SET_NO = 999
REV_AT_EPOCH   = 571
BSTAR          = -.45401461E-2
MEAN_MOTION_DOT = -.178158E-2
MEAN_MOTION_DDOT = 0

