HULIANWANG DIGUI-105    
1 66915U 25285A   26004.94285887 -.00000074  00000+0  54283-4 0  9999
2 66915  50.0061  23.0871 0000333 249.1973 110.8892 13.95407638  4162
HULIANWANG DIGUI-106    
1 66916U 25285B   26004.93933862 -.00000094  00000+0  39759-4 0  9995
2 66916  50.0073  23.0716 0000210 214.5197 145.5691 13.95504815  4169
HULIANWANG DIGUI-107    
1 66917U 25285C   26004.93718758 -.00000047  00000+0  73808-4 0  9992
2 66917  50.0038  23.0490 0000181 147.7548 212.3364 13.95673388  4166
HULIANWANG DIGUI-108    
1 66918U 25285D   26004.86297023 -.00000060  00000+0  64515-4 0  9992
2 66918  50.0060  23.3294 0000166  38.0030 322.0883 13.95818954  4152
HULIANWANG DIGUI-109    
1 66919U 25285E   26004.93237688 -.00000035  00000+0  82497-4 0  9993
2 66919  50.0085  23.0379 0000376 241.5193 118.5670 13.95945920  4162
HULIANWANG DIGUI-110    
1 66920U 25285F   26004.92974362  .00000246  00000+0  28610-3 0  9990
2 66920  50.0125  23.0343 0000351 318.5315  41.5559 13.96091334  4167
HULIANWANG DIGUI-111    
1 66921U 25285G   26004.92823369 -.00000186  00000+0 -27214-4 0  9996
2 66921  50.0131  23.0312 0000305 207.1276 152.9610 13.96280165  4166
HULIANWANG DIGUI-112    
1 66922U 25285H   26004.92671713 -.00000095  00000+0  38539-4 0  9991
2 66922  50.0105  23.0116 0000353 211.9096 148.1784 13.96466593  4166
HULIANWANG DIGUI-113    
1 66923U 25285J   26004.99523050  .00000020  00000+0  12104-3 0  9995
2 66923  50.0104  22.7099 0000429 273.0597  87.0255 13.96563475  4173
CZ-8A R/B               
1 66924U 25285K   26004.71395132  .00000181  00000+0  12195-3 0  9992
2 66924  50.0093  18.3603 0119146 187.7199 172.1885 14.30514258  4213
STARLINK-35945          
1 66925U 25286A   26004.92797923  .00086064  00000+0  15372-2 0  9994
2 66925  53.1589 296.8104 0000867  95.6817 264.4291 15.49332575  5623
STARLINK-35942          
1 66926U 25286B   26004.91668981 -.00178158  00000+0 -45401-2 0  9999
2 66926  53.1592 297.2298 0001595  89.1639  24.6426 15.39675945  5712
